SPACEMOBILE-006         
1 67232U 25309A   26121.44137164  .00003682  00000+0  19246-3 0  9994
2 67232  52.9939 185.6985 0010796 355.1083   4.9803 15.18301207 19494
